CCSDS_OMM_VERS = 2.0
CREATION_DATE  = 
ORIGINATOR     = 

OBJECT_NAME    = STARLINK-36610
OBJECT_ID      = 2026-020W
CENTER_NAME    = EARTH
REF_FRAME      = TEME
TIME_SYSTEM    = UTC
MEAN_ELEMENT_THEORY = SGP/SGP4

EPOCH          = 2026-02-25T10:27:23.387040
MEAN_MOTION    = 15.76549265
ECCENTRICITY   = .0002392
INCLINATION    = 42.9975
RA_OF_ASC_NODE = 216.5087
ARG_OF_PERICENTER = 261.6687
MEAN_ANOMALY   = 98.3911

EPHEMERIS_TYPE = 0
CLASSIFICATION_TYPE = U
NORAD_CAT_ID   = 67637
ELEMENT_SET_NO = 999
REV_AT_EPOCH   = 415
BSTAR          = .22933E-2
MEAN_MOTION_DOT = .394027E-2
MEAN_MOTION_DDOT = 0

CCSDS_OMM_VERS = 2.0
CREATION_DATE  = 
ORIGINATOR     = 

OBJECT_NAME    = STARLINK-36599
OBJECT_ID      = 2026-020X
CENTER_NAME    = EARTH
REF_FRAME      = TEME
TIME_SYSTEM    = UTC
MEAN_ELEMENT_THEORY = SGP/SGP4

EPOCH          = 2026-02-25T12:00:01.999296
MEAN_MOTION    = 15.76357990
ECCENTRICITY   = .0001457
INCLINATION    = 42.9985
RA_OF_ASC_NODE = 215.5286
ARG_OF_PERICENTER = 284.1750
MEAN_ANOMALY   = 317.8243

EPHEMERIS_TYPE = 0
CLASSIFICATION_TYPE = U
NORAD_CAT_ID   = 67638
ELEMENT_SET_NO = 999
REV_AT_EPOCH   = 543
BSTAR          = .52812E-4
MEAN_MOTION_DOT = .8118E-4
MEAN_MOTION_DDOT = 0

CCSDS_OMM_VERS = 2.0
CREATION_DATE  = 
ORIGINATOR     = 

OBJECT_NAME    = STARLINK-36595
OBJECT_ID      = 2026-020Y
CENTER_NAME    = EARTH
REF_FRAME      = TEME
TIME_SYSTEM    = UTC
MEAN_ELEMENT_THEORY = SGP/SGP4

EPOCH          = 2026-02-25T11:17:38.852448
MEAN_MOTION    = 15.76682253
ECCENTRICITY   = .0007484
INCLINATION    = 42.9991
RA_OF_ASC_NODE = 215.8922
ARG_OF_PERICENTER = 310.0629
MEAN_ANOMALY   = 49.9584

EPHEMERIS_TYPE = 0
CLASSIFICATION_TYPE = U
NORAD_CAT_ID   = 67639
ELEMENT_SET_NO = 999
REV_AT_EPOCH   = 416
BSTAR          = .18934E-2
MEAN_MOTION_DOT = .324811E-2
MEAN_MOTION_DDOT = 0

CCSDS_OMM_VERS = 2.0
CREATION_DATE  = 
ORIGINATOR     = 

OBJECT_NAME    = STARLINK-36570
OBJECT_ID      = 2026-020Z
CENTER_NAME    = EARTH
REF_FRAME      = TEME
TIME_SYSTEM    = UTC
MEAN_ELEMENT_THEORY = SGP/SGP4

EPOCH          = 2026-02-25T11:49:10.119072
MEAN_MOTION    = 15.76432778
ECCENTRICITY   = .0001115
INCLINATION    = 42.9974
RA_OF_ASC_NODE = 216.0696
ARG_OF_PERICENTER = 188.5162
MEAN_ANOMALY   = 171.5689

EPHEMERIS_TYPE = 0
CLASSIFICATION_TYPE = U
NORAD_CAT_ID   = 67640
ELEMENT_SET_NO = 999
REV_AT_EPOCH   = 416
BSTAR          = .17152E-2
MEAN_MOTION_DOT = .289416E-2
MEAN_MOTION_DDOT = 0

CCSDS_OMM_VERS = 2.0
CREATION_DATE  = 
ORIGINATOR     = 

OBJECT_NAME    = STARLINK-36514
OBJECT_ID      = 2026-020AA
CENTER_NAME    = EARTH
REF_FRAME      = TEME
TIME_SYSTEM    = UTC
MEAN_ELEMENT_THEORY = SGP/SGP4

EPOCH          = 2026-02-25T12:00:01.999296
MEAN_MOTION    = 15.76372490
ECCENTRICITY   = .0001472
INCLINATION    = 42.9985
RA_OF_ASC_NODE = 215.4973
ARG_OF_PERICENTER = 279.0376
MEAN_ANOMALY   = 335.3948

EPHEMERIS_TYPE = 0
CLASSIFICATION_TYPE = U
NORAD_CAT_ID   = 67641
ELEMENT_SET_NO = 999
REV_AT_EPOCH   = 543
BSTAR          = -.107E-3
MEAN_MOTION_DOT = -.17879E-3
MEAN_MOTION_DDOT = 0

CCSDS_OMM_VERS = 2.0
CREATION_DATE  = 
ORIGINATOR     = 

OBJECT_NAME    = STARLINK-36556
OBJECT_ID      = 2026-020AB
CENTER_NAME    = EARTH
REF_FRAME      = TEME
TIME_SYSTEM    = UTC
MEAN_ELEMENT_THEORY = SGP/SGP4

EPOCH          = 2026-02-25T11:33:24.197184
MEAN_MOTION    = 15.76541086
ECCENTRICITY   = .0001591
INCLINATION    = 42.9966
RA_OF_ASC_NODE = 215.9817
ARG_OF_PERICENTER = 231.9587
MEAN_ANOMALY   = 128.1139

EPHEMERIS_TYPE = 0
CLASSIFICATION_TYPE = U
NORAD_CAT_ID   = 67642
ELEMENT_SET_NO = 999
REV_AT_EPOCH   = 416
BSTAR          = .20479E-2
MEAN_MOTION_DOT = .349816E-2
MEAN_MOTION_DDOT = 0

CCSDS_OMM_VERS = 2.0
CREATION_DATE  = 
ORIGINATOR     = 

OBJECT_NAME    = STARLINK-36533
OBJECT_ID      = 2026-020AC
CENTER_NAME    = EARTH
REF_FRAME      = TEME
TIME_SYSTEM    = UTC
MEAN_ELEMENT_THEORY = SGP/SGP4

EPOCH          = 2026-02-25T11:52:19.117344
MEAN_MOTION    = 15.76578313
ECCENTRICITY   = .0001857
INCLINATION    = 42.9973
RA_OF_ASC_NODE = 216.0870
ARG_OF_PERICENTER = 252.5115
MEAN_ANOMALY   = 107.5552

EPHEMERIS_TYPE = 0
CLASSIFICATION_TYPE = U
NORAD_CAT_ID   = 67643
ELEMENT_SET_NO = 999
REV_AT_EPOCH   = 416
BSTAR          = .19316E-2
MEAN_MOTION_DOT = .32967E-2
MEAN_MOTION_DDOT = 0

CCSDS_OMM_VERS = 2.0
CREATION_DATE  = 
ORIGINATOR     = 

OBJECT_NAME    = STARLINK-36623
OBJECT_ID      = 2026-020AD
CENTER_NAME    = EARTH
REF_FRAME      = TEME
TIME_SYSTEM    = UTC
MEAN_ELEMENT_THEORY = SGP/SGP4

EPOCH          = 2026-02-25T11:42:51.745824
MEAN_MOTION    = 15.76628530
ECCENTRICITY   = .0002253
INCLINATION    = 42.9988
RA_OF_ASC_NODE = 216.0335
ARG_OF_PERICENTER = 256.8413
MEAN_ANOMALY   = 103.2205

EPHEMERIS_TYPE = 0
CLASSIFICATION_TYPE = U
NORAD_CAT_ID   = 67644
ELEMENT_SET_NO = 999
REV_AT_EPOCH   = 416
BSTAR          = .27827E-2
MEAN_MOTION_DOT = .48515E-2
MEAN_MOTION_DDOT = 0

CCSDS_OMM_VERS = 2.0
CREATION_DATE  = 
ORIGINATOR     = 

OBJECT_NAME    = STARLINK-36619
OBJECT_ID      = 2026-020AE
CENTER_NAME    = EARTH
REF_FRAME      = TEME
TIME_SYSTEM    = UTC
MEAN_ELEMENT_THEORY = SGP/SGP4

EPOCH          = 2026-02-25T11:39:42.621408
MEAN_MOTION    = 15.76558732
ECCENTRICITY   = .0005369
INCLINATION    = 42.9978
RA_OF_ASC_NODE = 216.0159
ARG_OF_PERICENTER = 296.3519
MEAN_ANOMALY   = 63.6799

EPHEMERIS_TYPE = 0
CLASSIFICATION_TYPE = U
NORAD_CAT_ID   = 67645
ELEMENT_SET_NO = 999
REV_AT_EPOCH   = 416
BSTAR          = .15931E-2
MEAN_MOTION_DOT = .269778E-2
MEAN_MOTION_DDOT = 0

CCSDS_OMM_VERS = 2.0
CREATION_DATE  = 
ORIGINATOR     = 

OBJECT_NAME    = ALSAT-3B
OBJECT_ID      = 2026-021A
CENTER_NAME    = EARTH
REF_FRAME      = TEME
TIME_SYSTEM    = UTC
MEAN_ELEMENT_THEORY = SGP/SGP4

EPOCH          = 2026-02-25T11:56:08.208672
MEAN_MOTION    = 15.23745533
ECCENTRICITY   = .0012946
INCLINATION    = 97.4691
RA_OF_ASC_NODE = 130.8878
ARG_OF_PERICENTER = 172.1599
MEAN_ANOMALY   = 187.9843

EPHEMERIS_TYPE = 0
CLASSIFICATION_TYPE = U
NORAD_CAT_ID   = 67646
ELEMENT_SET_NO = 999
REV_AT_EPOCH   = 386
BSTAR          = .28709E-3
MEAN_MOTION_DOT = .6846E-4
MEAN_MOTION_DDOT = 0

CCSDS_OMM_VERS = 2.0
CREATION_DATE  = 
ORIGINATOR     = 

OBJECT_NAME    = CZ-2C R/B
OBJECT_ID      = 2026-021B
CENTER_NAME    = EARTH
REF_FRAME      = TEME
TIME_SYSTEM    = UTC
MEAN_ELEMENT_THEORY = SGP/SGP4

EPOCH          = 2026-02-25T08:51:50.764320
MEAN_MOTION    = 15.23730877
ECCENTRICITY   = .0152556
INCLINATION    = 97.6530
RA_OF_ASC_NODE = 131.5932
ARG_OF_PERICENTER = 54.1401
MEAN_ANOMALY   = 307.3893

EPHEMERIS_TYPE = 0
CLASSIFICATION_TYPE = U
NORAD_CAT_ID   = 67647
ELEMENT_SET_NO = 999
REV_AT_EPOCH   = 382
BSTAR          = .36474E-3
MEAN_MOTION_DOT = .12116E-3
MEAN_MOTION_DDOT = 0

CCSDS_OMM_VERS = 2.0
CREATION_DATE  = 
ORIGINATOR     = 

OBJECT_NAME    = STARLINK-36719
OBJECT_ID      = 2026-022A
CENTER_NAME    = EARTH
REF_FRAME      = TEME
TIME_SYSTEM    = UTC
MEAN_ELEMENT_THEORY = SGP/SGP4

EPOCH          = 2026-02-25T02:01:16.272768
MEAN_MOTION    = 15.75243925
ECCENTRICITY   = .00008295
INCLINATION    = 97.2844
RA_OF_ASC_NODE = 89.4259
ARG_OF_PERICENTER = 53.7298
MEAN_ANOMALY   = 306.4044

EPHEMERIS_TYPE = 0
CLASSIFICATION_TYPE = U
NORAD_CAT_ID   = 67648
ELEMENT_SET_NO = 999
REV_AT_EPOCH   = 356
BSTAR          = .95783477E-3
MEAN_MOTION_DOT = .145535E-2
MEAN_MOTION_DDOT = 0

