STARLINK-36610          
1 67637U 26020W   26056.43568735  .00394027  00000+0  22933-2 0  9994
2 67637  42.9975 216.5087 0002392 261.6687  98.3911 15.76549265  4159
STARLINK-36599          
1 67638U 26020X   26056.50002314  .00008118  00000+0  52812-4 0  9993
2 67638  42.9985 215.5286 0001457 284.1750 317.8243 15.76357990  5434
STARLINK-36595          
1 67639U 26020Y   26056.47058857  .00324811  00000+0  18934-2 0  9999
2 67639  42.9991 215.8922 0007484 310.0629  49.9584 15.76682253  4165
STARLINK-36570          
1 67640U 26020Z   26056.49247823  .00289416  00000+0  17152-2 0  9998
2 67640  42.9974 216.0696 0001115 188.5162 171.5689 15.76432778  4167
STARLINK-36514          
1 67641U 26020AA  26056.50002314 -.00017879  00000+0 -10700-3 0  9992
2 67641  42.9985 215.4973 0001472 279.0376 335.3948 15.76372490  5433
STARLINK-36556          
1 67642U 26020AB  26056.48153006  .00349816  00000+0  20479-2 0  9995
2 67642  42.9966 215.9817 0001591 231.9587 128.1139 15.76541086  4166
STARLINK-36533          
1 67643U 26020AC  26056.49466571  .00329670  00000+0  19316-2 0  9995
2 67643  42.9973 216.0870 0001857 252.5115 107.5552 15.76578313  4160
STARLINK-36623          
1 67644U 26020AD  26056.48809891  .00485150  00000+0  27827-2 0  9993
2 67644  42.9988 216.0335 0002253 256.8413 103.2205 15.76628530  4167
STARLINK-36619          
1 67645U 26020AE  26056.48590997  .00269778  00000+0  15931-2 0  9997
2 67645  42.9978 216.0159 0005369 296.3519  63.6799 15.76558732  4161
ALSAT-3B                
1 67646U 26021A   26056.49731723  .00006846  00000+0  28709-3 0  9997
2 67646  97.4691 130.8878 0012946 172.1599 187.9843 15.23745533  3863
CZ-2C R/B               
1 67647U 26021B   26056.36933755  .00012116  00000+0  36474-3 0  9998
2 67647  97.6530 131.5932 0152556  54.1401 307.3893 15.23730877  3824
STARLINK-36719          
1 67648U 26022A   26056.08421612  .00145535  00000+0  95783-3 0  9993
2 67648  97.2844  89.4259 0000829  53.7298 306.4044 15.75243925  3565
